start=new Date('2022-10-30T00:00:00.000Z').valueOf();
sats=[{"SITE":"AFWTR","EPHEMERIS_TYPE":"0","RA_OF_ASC_NODE":"107.6996","SEMIMAJOR_AXIS":"6950.148","ELEMENT_SET_NO":"999","GP_ID":"216478656","APOAPSIS":"574.036","EPOCH":"2022-10-29T20:55:07.123872","MEAN_ANOMALY":"92.8540","TLE_LINE2":"2 49145  69.9995 107.6996 0002911 267.2286  92.8540 14.98344443 63197","TLE_LINE1":"1 49145U 21082R   22302.87161023 -.00000733  00000-0 -53622-4 0  9990","ECCENTRICITY":"0.00029110","COUNTRY_CODE":"US","DECAY_DATE":null,"OBJECT_NAME":"STARLINK-3119","MEAN_MOTION_DOT":"-0.00000733","MEAN_MOTION_DDOT":"0.0000000000000","TIME_SYSTEM":"UTC","CLASSIFICATION_TYPE":"U","INCLINATION":"69.9995","RCS_SIZE":"LARGE","PERIAPSIS":"569.990","BSTAR":"-0.00005362200000","OBJECT_ID":"2021-082R","MEAN_ELEMENT_THEORY":"SGP4","REV_AT_EPOCH":"6319","NORAD_CAT_ID":"49145","PERIOD":"96.106","ARG_OF_PERICENTER":"267.2286","CENTER_NAME":"EARTH","OBJECT_TYPE":"PAYLOAD","FILE":"3637863","REF_FRAME":"TEME","MEAN_MOTION":"14.98344443","LAUNCH_DATE":"2021-09-14"},{"REF_FRAME":"TEME","MEAN_MOTION":"14.98327305","LAUNCH_DATE":"2021-09-14","FILE":"3637424","OBJECT_TYPE":"PAYLOAD","PERIOD":"96.107","CENTER_NAME":"EARTH","ARG_OF_PERICENTER":"252.3683","MEAN_ELEMENT_THEORY":"SGP4","NORAD_CAT_ID":"49146","REV_AT_EPOCH":"6372","CLASSIFICATION_TYPE":"U","TIME_SYSTEM":"UTC","PERIAPSIS":"569.948","BSTAR":"-0.00001092900000","OBJECT_ID":"2021-082S","INCLINATION":"69.9991","RCS_SIZE":"LARGE","DECAY_DATE":null,"COUNTRY_CODE":"US","TLE_LINE1":"1 49146U 21082S   22301.95472083 -.00000223  00000-0 -10929-4 0  9997","ECCENTRICITY":"0.00030480","MEAN_MOTION_DDOT":"0.0000000000000","OBJECT_NAME":"STARLINK-3116","MEAN_MOTION_DOT":"-0.00000223","GP_ID":"216442840","EPOCH":"2022-10-28T22:54:47.879712","MEAN_ANOMALY":"107.7143","TLE_LINE2":"2 49146  69.9991 130.0164 0003048 252.3683 107.7143 14.98327305 63721","APOAPSIS":"574.185","EPHEMERIS_TYPE":"0","SITE":"AFWTR","ELEMENT_SET_NO":"999","SEMIMAJOR_AXIS":"6950.201","RA_OF_ASC_NODE":"130.0164"},{"MEAN_ELEMENT_THEORY":"SGP4","REV_AT_EPOCH":"6320","NORAD_CAT_ID":"49147","PERIOD":"96.107","ARG_OF_PERICENTER":"257.5447","CENTER_NAME":"EARTH","OBJECT_TYPE":"PAYLOAD","FILE":"3637863","REF_FRAME":"TEME","LAUNCH_DATE":"2021-09-14","MEAN_MOTION":"14.98329879","SITE":"AFWTR","EPHEMERIS_TYPE":"0","RA_OF_ASC_NODE":"107.6807","SEMIMAJOR_AXIS":"6950.193","ELEMENT_SET_NO":"999","GP_ID":"216477655","APOAPSIS":"574.250","TLE_LINE2":"2 49147  69.9995 107.6807 0003154 257.5447 102.5359 14.98329879 63206","EPOCH":"2022-10-29T21:08:50.734464","MEAN_ANOMALY":"102.5359","ECCENTRICITY":"0.00031540","TLE_LINE1":"1 49147U 21082T   22302.88114276 -.00000845  00000-0 -63039-4 0  9998","DECAY_DATE":null,"COUNTRY_CODE":"US","MEAN_MOTION_DOT":"-0.00000845","OBJECT_NAME":"STARLINK-3071","MEAN_MOTION_DDOT":"0.0000000000000","TIME_SYSTEM":"UTC","CLASSIFICATION_TYPE":"U","RCS_SIZE":"LARGE","INCLINATION":"69.9995","OBJECT_ID":"2021-082T","BSTAR":"-0.00006303900000","PERIAPSIS":"569.866"},{"NORAD_CAT_ID":"49148","REV_AT_EPOCH":"6269","MEAN_ELEMENT_THEORY":"SGP4","CENTER_NAME":"EARTH","ARG_OF_PERICENTER":"258.3690","PERIOD":"96.106","FILE":"3637863","OBJECT_TYPE":"PAYLOAD","MEAN_MOTION":"14.98350651","LAUNCH_DATE":"2021-09-14","REF_FRAME":"TEME","ELEMENT_SET_NO":"999","SEMIMAJOR_AXIS":"6950.129","RA_OF_ASC_NODE":"127.8270","EPHEMERIS_TYPE":"0","SITE":"AFWTR","EPOCH":"2022-10-29T19:37:40.486080","MEAN_ANOMALY":"101.7110","TLE_LINE2":"2 49148  69.9979 127.8270 0003201 258.3690 101.7110 14.98350651 62699","APOAPSIS":"574.219","GP_ID":"216477905","MEAN_MOTION_DDOT":"0.0000000000000","OBJECT_NAME":"STARLINK-3048","MEAN_MOTION_DOT":"-0.00003823","COUNTRY_CODE":"US","DECAY_DATE":null,"TLE_LINE1":"1 49148U 21082U   22302.81782970 -.00003823  00000-0 -31264-3 0  9997","ECCENTRICITY":"0.00032010","PERIAPSIS":"569.769","BSTAR":"-0.00031264000000","OBJECT_ID":"2021-082U","INCLINATION":"69.9979","RCS_SIZE":"LARGE","CLASSIFICATION_TYPE":"U","TIME_SYSTEM":"UTC"},{"EPHEMERIS_TYPE":"0","SITE":"AFWTR","ELEMENT_SET_NO":"999","SEMIMAJOR_AXIS":"6950.177","RA_OF_ASC_NODE":"147.7571","GP_ID":"216478156","MEAN_ANOMALY":"103.0168","EPOCH":"2022-10-29T20:23:49.605216","TLE_LINE2":"2 49149  70.0006 147.7571 0002876 257.0670 103.0168 14.98335165 63401","APOAPSIS":"574.041","DECAY_DATE":null,"COUNTRY_CODE":"US","TLE_LINE1":"1 49149U 21082V   22302.84987969  .00000793  00000-0  74270-4 0  9992","ECCENTRICITY":"0.00028760","MEAN_MOTION_DDOT":"0.0000000000000","OBJECT_NAME":"STARLINK-3053","MEAN_MOTION_DOT":"0.00000793","CLASSIFICATION_TYPE":"U","TIME_SYSTEM":"UTC","PERIAPSIS":"570.043","OBJECT_ID":"2021-082V","BSTAR":"0.00007427000000","INCLINATION":"70.0006","RCS_SIZE":"LARGE","MEAN_ELEMENT_THEORY":"SGP4","NORAD_CAT_ID":"49149","REV_AT_EPOCH":"6340","PERIOD":"96.107","CENTER_NAME":"EARTH","ARG_OF_PERICENTER":"257.0670","FILE":"3637863","OBJECT_TYPE":"PAYLOAD","REF_FRAME":"TEME","MEAN_MOTION":"14.98335165","LAUNCH_DATE":"2021-09-14"},{"REF_FRAME":"TEME","MEAN_MOTION":"14.98334164","LAUNCH_DATE":"2021-09-14","OBJECT_TYPE":"PAYLOAD","FILE":"3637863","PERIOD":"96.107","ARG_OF_PERICENTER":"252.6429","CENTER_NAME":"EARTH","MEAN_ELEMENT_THEORY":"SGP4","REV_AT_EPOCH":"6340","NORAD_CAT_ID":"49150","TIME_SYSTEM":"UTC","CLASSIFICATION_TYPE":"U","INCLINATION":"70.0008","RCS_SIZE":"LARGE","PERIAPSIS":"569.769","OBJECT_ID":"2021-082W","BSTAR":"-0.00015811000000","TLE_LINE1":"1 49150U 21082W   22302.84511630 -.00001979  00000-0 -15811-3 0  9996","ECCENTRICITY":"0.00032750","COUNTRY_CODE":"US","DECAY_DATE":null,"OBJECT_NAME":"STARLINK-3104","MEAN_MOTION_DOT":"-0.00001979","MEAN_MOTION_DDOT":"0.0000000000000","GP_ID":"216477634","APOAPSIS":"574.321","EPOCH":"2022-10-29T20:16:58.048320","MEAN_ANOMALY":"107.4372","TLE_LINE2":"2 49150  70.0008 147.7689 0003275 252.6429 107.4372 14.98334164 63405","SITE":"AFWTR","EPHEMERIS_TYPE":"0","SEMIMAJOR_AXIS":"6950.180","RA_OF_ASC_NODE":"147.7689","ELEMENT_SET_NO":"999"},{"PERIOD":"96.106","ARG_OF_PERICENTER":"248.0151","CENTER_NAME":"EARTH","MEAN_ELEMENT_THEORY":"SGP4","REV_AT_EPOCH":"6439","NORAD_CAT_ID":"49151","REF_FRAME":"TEME","LAUNCH_DATE":"2021-09-14","MEAN_MOTION":"14.98340168","OBJECT_TYPE":"PAYLOAD","FILE":"3637863","GP_ID":"216477155","APOAPSIS":"574.223","TLE_LINE2":"2 49151  69.9982 107.7197 0003160 248.0151 112.0672 14.98340168 64393","MEAN_ANOMALY":"112.0672","EPOCH":"2022-10-29T20:41:23.010432","SITE":"AFWTR","EPHEMERIS_TYPE":"0","SEMIMAJOR_AXIS":"6950.161","RA_OF_ASC_NODE":"107.7197","ELEMENT_SET_NO":"999","TIME_SYSTEM":"UTC","CLASSIFICATION_TYPE":"U","RCS_SIZE":"LARGE","INCLINATION":"69.9982","BSTAR":"0.00014724000000","OBJECT_ID":"2021-082X","PERIAPSIS":"569.830","ECCENTRICITY":"0.00031600","TLE_LINE1":"1 49151U 21082X   22302.86207188  .00001665  00000-0  14724-3 0  9991","DECAY_DATE":null,"COUNTRY_CODE":"US","MEAN_MOTION_DOT":"0.00001665","OBJECT_NAME":"STARLINK-3102","MEAN_MOTION_DDOT":"0.0000000000000"},{"CLASSIFICATION_TYPE":"U","TIME_SYSTEM":"UTC","BSTAR":"-0.00100470000000","OBJECT_ID":"2021-082Y","PERIAPSIS":"570.368","RCS_SIZE":"LARGE","INCLINATION":"69.9990","DECAY_DATE":null,"COUNTRY_CODE":"US","ECCENTRICITY":"0.00028920","TLE_LINE1":"1 49152U 21082Y   22302.83835496 -.00012028  00000-0 -10047-2 0  9998","MEAN_MOTION_DDOT":"0.0000000000000","MEAN_MOTION_DOT":"-0.00012028","OBJECT_NAME":"STARLINK-3081","GP_ID":"216477405","TLE_LINE2":"2 49152  69.9990 107.7815 0002892 241.6125 118.4742 14.98226549 64317","MEAN_ANOMALY":"118.4742","EPOCH":"2022-10-29T20:07:13.868544","APOAPSIS":"574.388","EPHEMERIS_TYPE":"0","SITE":"AFWTR","ELEMENT_SET_NO":"999","SEMIMAJOR_AXIS":"6950.513","RA_OF_ASC_NODE":"107.7815","REF_FRAME":"TEME","LAUNCH_DATE":"2021-09-14","MEAN_MOTION":"14.98226549","FILE":"3637863","OBJECT_TYPE":"PAYLOAD","PERIOD":"96.114","CENTER_NAME":"EARTH","ARG_OF_PERICENTER":"241.6125","MEAN_ELEMENT_THEORY":"SGP4","NORAD_CAT_ID":"49152","REV_AT_EPOCH":"6431"},{"PERIOD":"96.107","ARG_OF_PERICENTER":"255.0396","CENTER_NAME":"EARTH","MEAN_ELEMENT_THEORY":"SGP4","REV_AT_EPOCH":"6440","NORAD_CAT_ID":"49153","REF_FRAME":"TEME","MEAN_MOTION":"14.98337249","LAUNCH_DATE":"2021-09-14","OBJECT_TYPE":"PAYLOAD","FILE":"3637863","GP_ID":"216478657","APOAPSIS":"574.125","MEAN_ANOMALY":"105.0431","EPOCH":"2022-10-29T20:27:39.595968","TLE_LINE2":"2 49153  69.9971 107.7514 0003007 255.0396 105.0431 14.98337249 64408","SITE":"AFWTR","EPHEMERIS_TYPE":"0","SEMIMAJOR_AXIS":"6950.170","RA_OF_ASC_NODE":"107.7514","ELEMENT_SET_NO":"999","TIME_SYSTEM":"UTC","CLASSIFICATION_TYPE":"U","INCLINATION":"69.9971","RCS_SIZE":"LARGE","PERIAPSIS":"569.946","OBJECT_ID":"2021-082Z","BSTAR":"0.00020799000000","TLE_LINE1":"1 49153U 21082Z   22302.85254162  .00002390  00000-0  20799-3 0  9991","ECCENTRICITY":"0.00030070","COUNTRY_CODE":"US","DECAY_DATE":null,"OBJECT_NAME":"STARLINK-3072","MEAN_MOTION_DOT":"0.00002390","MEAN_MOTION_DDOT":"0.0000000000000"},{"MEAN_MOTION":"14.98345887","LAUNCH_DATE":"2021-09-14","REF_FRAME":"TEME","OBJECT_TYPE":"PAYLOAD","FILE":"3637863","ARG_OF_PERICENTER":"235.6614","CENTER_NAME":"EARTH","PERIOD":"96.106","REV_AT_EPOCH":"6378","NORAD_CAT_ID":"49154","MEAN_ELEMENT_THEORY":"SGP4","INCLINATION":"69.9986","RCS_SIZE":"LARGE","PERIAPSIS":"569.284","BSTAR":"0.00007721500000","OBJECT_ID":"2021-082AA","TIME_SYSTEM":"UTC","CLASSIFICATION_TYPE":"U","OBJECT_NAME":"STARLINK-3068","MEAN_MOTION_DOT":"0.00000829","MEAN_MOTION_DDOT":"0.0000000000000","TLE_LINE1":"1 49154U 21082AA  22302.87982058  .00000829  00000-0  77215-4 0  9997","ECCENTRICITY":"0.00039200","COUNTRY_CODE":"US","DECAY_DATE":null,"APOAPSIS":"574.733","EPOCH":"2022-10-29T21:06:56.498112","MEAN_ANOMALY":"124.4175","TLE_LINE2":"2 49154  69.9986 127.6694 0003920 235.6614 124.4175 14.98345887 63783","GP_ID":"216477134","SEMIMAJOR_AXIS":"6950.144","RA_OF_ASC_NODE":"127.6694","ELEMENT_SET_NO":"999","SITE":"AFWTR","EPHEMERIS_TYPE":"0"}];
